[{"OBJECT_NAME":"FALCONSAT-6","OBJECT_ID":"2018-099BK","EPOCH":"2026-03-09T17:24:38.352096","MEAN_MOTION":15.26532865,"ECCENTRICITY":0.00143698,"INCLINATION":97.3865,"RA_OF_ASC_NODE":145.8165,"ARG_OF_PERICENTER":297.0944,"MEAN_ANOMALY":181.0714,"EPHEMERIS_TYPE":0,"CLASSIFICATION_TYPE":"U","NORAD_CAT_ID":43815,"ELEMENT_SET_NO":999,"REV_AT_EPOCH":39855,"BSTAR":0.00019476898,"MEAN_MOTION_DOT":5.029e-5,"MEAN_MOTION_DDOT":0},{"OBJECT_NAME":"STARLINK-31463","OBJECT_ID":"2024-056A","EPOCH":"2026-03-09T10:50:31.347744","MEAN_MOTION":15.27565833,"ECCENTRICITY":0.00022948,"INCLINATION":43.0002,"RA_OF_ASC_NODE":228.1026,"ARG_OF_PERICENTER":280.3359,"MEAN_ANOMALY":79.7234,"EPHEMERIS_TYPE":0,"CLASSIFICATION_TYPE":"U","NORAD_CAT_ID":59296,"ELEMENT_SET_NO":999,"REV_AT_EPOCH":11116,"BSTAR":-1.9380749e-5,"MEAN_MOTION_DOT":-7.96e-6,"MEAN_MOTION_DDOT":0}]
