FALCONSAT-6             
1 43815U 18099BK  26068.72544389  .00005029  00000+0  19477-3 0  9998
2 43815  97.3865 145.8165 0014370 297.0944 181.0714 15.26532865398556
STARLINK-31463          
1 59296U 24056A   26068.45175171 -.00000796  00000+0 -19381-4 0  9990
2 59296  43.0002 228.1026 0002294 280.3359  79.7234 15.27565833111167
